CTC1_L_00503001-01
1 82852U 22503PX  26037.47807870  .00000000  00000+0  00000-0 0  9995
2 82852  96.7000   0.0000 0000000   0.0000   0.0000 15.82277966    13
CTC1_L_00503002-01
1 82853U 25885VU  26037.47807870  .00000000  00000+0  00000-0 0  9992
2 82853  96.7000  12.0000 0000000   0.0000  48.0000 15.82277966    19
CTC1_L_00503003-01
1 82854U 25109VI  26037.47807870  .00000000  00000+0  00000-0 0  9992
2 82854  96.7000  24.0000 0000000   0.0000  96.0000 15.82277966    16
CTC1_L_00503004-01
1 82855U 26263JE  26037.47807870  .00000000  00000+0  00000-0 0  9995
2 82855  96.7000  36.0000 0000000   0.0000 144.0000 15.82277966    14
CTC1_L_00503005-01
1 82856U 25521Y   26037.47807870  .00000000  00000+0  00000-0 0  9992
2 82856  96.7000  48.0000 0000000   0.0000 192.0000 15.82277966    11
CTC1_L_00503006-01
1 82857U 24366LX  26037.47807870  .00000000  00000+0  00000-0 0  9999
2 82857  96.7000  60.0000 0000000   0.0000 240.0000 15.82277966    10
CTC1_L_00503007-01
1 82858U 25694VA  26037.47807870  .00000000  00000+0  00000-0 0  9995
2 82858  96.7000  72.0000 0000000   0.0000 288.0000 15.82277966    16
CTC1_L_00503008-01
1 82859U 23101IV  26037.47807870  .00000000  00000+0  00000-0 0  9997
2 82859  96.7000  84.0000 0000000   0.0000 336.0000 15.82277966    14
CTC1_L_00503009-01
1 82860U 25939SB  26037.47807870  .00000000  00000+0  00000-0 0  9990
2 82860  96.7000  96.0000 0000000   0.0000  24.0000 15.82277966    13
CTC1_L_00503010-01
1 82861U 24034WG  26037.47807870  .00000000  00000+0  00000-0 0  9996
2 82861  96.7000 108.0000 0000000   0.0000  72.0000 15.82277966    11
CTC1_L_00503011-01
1 82862U 22030AE  26037.47807870  .00000000  00000+0  00000-0 0  9991
2 82862  96.7000 120.0000 0000000   0.0000 120.0000 15.82277966    10
CTC1_L_00503012-01
1 82863U 25200OV  26037.47807870  .00000000  00000+0  00000-0 0  9994
2 82863  96.7000 132.0000 0000000   0.0000 168.0000 15.82277966    16
CTC1_L_00503013-01
1 82864U 23185QB  26037.47807870  .00000000  00000+0  00000-0 0  9995
2 82864  96.7000 144.0000 0000000   0.0000 216.0000 15.82277966    14
CTC1_L_00503014-01
1 82865U 22562N   26037.47807870  .00000000  00000+0  00000-0 0  9994
2 82865  96.7000 156.0000 0000000   0.0000 264.0000 15.82277966    11
CTC1_L_00503015-01
1 82866U 23985BV  26037.47807870  .00000000  00000+0  00000-0 0  9995
2 82866  96.7000 168.0000 0000000   0.0000 312.0000 15.82277966    19
CTC1_L_00503016-01
1 82867U 24720KJ  26037.47807870  .00000000  00000+0  00000-0 0  9994
2 82867  96.7000 180.0000 0000000   0.0000   0.0000 15.82277966    18
CTC1_L_00503017-01
1 82868U 24957MG  26037.47807870  .00000000  00000+0  00000-0 0  9997
2 82868  96.7000 192.0000 0000000   0.0000  48.0000 15.82277966    14
CTC1_L_00503018-01
1 82869U 24513HI  26037.47807870  .00000000  00000+0  00000-0 0  9996
2 82869  96.7000 204.0000 0000000   0.0000  96.0000 15.82277966    12
CTC1_L_00503019-01
1 82870U 25957HR  26037.47807870  .00000000  00000+0  00000-0 0  9991
2 82870  96.7000 216.0000 0000000   0.0000 144.0000 15.82277966    11
CTC1_L_00503020-01
1 82871U 25023FZ  26037.47807870  .00000000  00000+0  00000-0 0  9996
2 82871  96.7000 228.0000 0000000   0.0000 192.0000 15.82277966    18
CTC1_L_00503021-01
1 82872U 22665PB  26037.47807870  .00000000  00000+0  00000-0 0  9996
2 82872  96.7000 240.0000 0000000   0.0000 240.0000 15.82277966    17
CTC1_L_00503022-01
1 82873U 23106BV  26037.47807870  .00000000  00000+0  00000-0 0  9998
2 82873  96.7000 252.0000 0000000   0.0000 288.0000 15.82277966    13
CTC1_L_00503023-01
1 82874U 23642WH  26037.47807870  .00000000  00000+0  00000-0 0  9994
2 82874  96.7000 264.0000 0000000   0.0000 336.0000 15.82277966    11
CTC1_L_00503024-01
1 82875U 25511YY  26037.47807870  .00000000  00000+0  00000-0 0  9992
2 82875  96.7000 276.0000 0000000   0.0000  24.0000 15.82277966    19
CTC1_L_00503025-01
1 82876U 26665NQ  26037.47807870  .00000000  00000+0  00000-0 0  9994
2 82876  96.7000 288.0000 0000000   0.0000  72.0000 15.82277966    16
CTC1_L_00503026-01
1 82877U 26679HN  26037.47807870  .00000000  00000+0  00000-0 0  9990
2 82877  96.7000 300.0000 0000000   0.0000 120.0000 15.82277966    16
CTC1_L_00503027-01
1 82878U 26770HS  26037.47807870  .00000000  00000+0  00000-0 0  9993
2 82878  96.7000 312.0000 0000000   0.0000 168.0000 15.82277966    12
CTC1_L_00503028-01
1 82879U 24269L   26037.47807870  .00000000  00000+0  00000-0 0  9995
2 82879  96.7000 324.0000 0000000   0.0000 216.0000 15.82277966    10
CTC1_L_00503029-01
1 82880U 23334LH  26037.47807870  .00000000  00000+0  00000-0 0  9999
2 82880  96.7000 336.0000 0000000   0.0000 264.0000 15.82277966    18
CTC1_L_00503030-01
1 82881U 24802YC  26037.47807870  .00000000  00000+0  00000-0 0  9991
2 82881  96.7000 348.0000 0000000   0.0000 312.0000 15.82277966    16
